{"type": "FeatureCollection", "features": [ {"type": "Feature", "properties": {"norad_id": 66865, "name": "STARLINK-36117", "group": "last-30-days", "lat": 4.284117890089941, "lon": -60.748910859050774, "alt_km": 295.4277932308669, "timestamp": "2025-12-12T11:38:30.171696+00:00", "meta": {"OBJECT_NAME": "STARLINK-36117", "OBJECT_ID": "2025-281T", "EPOCH": "2025-12-12T04:00:01.998720", "MEAN_MOTION": 15.93010933, "ECCENTRICITY": 0.0001731, "INCLINATION": 43.0019, "RA_OF_ASC_NODE": 125.8446, "ARG_OF_PERICENTER": 269.8269, "MEAN_ANOMALY": 236.1389, "EPHEMERIS_TYPE": 0, "CLASSIFICATION_TYPE": "U", "NORAD_CAT_ID": 66865, "ELEMENT_SET_NO": 999, "REV_AT_EPOCH": 131, "BSTAR": -0.0034831, "MEAN_MOTION_DOT": -0.01261757, "MEAN_MOTION_DDOT": 0.00046677}, "tle": {"line1": "1 66865U 25281T   25346.16668980 -.01261757  46677-3 -34831-2 0  9998", "line2": "2 66865  43.0019 125.8446 0001731 269.8269 236.1389 15.93010933  1315"}}, "geometry": {"type": "Point", "coordinates": [-60.748910859050774, 4.284117890089941]}}, {"type": "Feature", "properties": {"norad_id": 66866, "name": "STARLINK-36126", "group": "last-30-days", "lat": 2.7241009509846035, "lon": -59.070365113347435, "alt_km": 295.5148663867194, "timestamp": "2025-12-12T11:38:30.171706+00:00", "meta": {"OBJECT_NAME": "STARLINK-36126", "OBJECT_ID": "2025-281U", "EPOCH": "2025-12-12T04:00:01.998720", "MEAN_MOTION": 15.93077255, "ECCENTRICITY": 0.0001596, "INCLINATION": 43.0018, "RA_OF_ASC_NODE": 125.8392, "ARG_OF_PERICENTER": 273.116, "MEAN_ANOMALY": 235.0741, "EPHEMERIS_TYPE": 0, "CLASSIFICATION_TYPE": "U", "NORAD_CAT_ID": 66866, "ELEMENT_SET_NO": 999, "REV_AT_EPOCH": 134, "BSTAR": -0.0035437, "MEAN_MOTION_DOT": -0.01287886, "MEAN_MOTION_DDOT": 0.00048492}, "tle": {"line1": "1 66866U 25281U   25346.16668980 -.01287886  48492-3 -35437-2 0  9990", "line2": "2 66866  43.0018 125.8392 0001596 273.1160 235.0741 15.93077255  1345"}}, "geometry": {"type": "Point", "coordinates": [-59.070365113347435, 2.7241009509846035]}}, {"type": "Feature", "properties": {"norad_id": 66867, "name": "STARLINK-36101", "group": "last-30-days", "lat": 0.6388666429207224, "lon": -56.837360372766746, "alt_km": 295.5864207061568, "timestamp": "2025-12-12T11:38:30.171718+00:00", "meta": {"OBJECT_NAME": "STARLINK-36101", "OBJECT_ID": "2025-281V", "EPOCH": "2025-12-12T04:00:01.998720", "MEAN_MOTION": 15.93155105, "ECCENTRICITY": 0.0001467, "INCLINATION": 43.002, "RA_OF_ASC_NODE": 125.8313, "ARG_OF_PERICENTER": 274.5114, "MEAN_ANOMALY": 236.659, "EPHEMERIS_TYPE": 0, "CLASSIFICATION_TYPE": "U", "NORAD_CAT_ID": 66867, "ELEMENT_SET_NO": 999, "REV_AT_EPOCH": 130, "BSTAR": -0.0036161, "MEAN_MOTION_DOT": -0.01319243, "MEAN_MOTION_DDOT": 0.00050713}, "tle": {"line1": "1 66867U 25281V   25346.16668980 -.01319243  50713-3 -36161-2 0  9998", "line2": "2 66867  43.0020 125.8313 0001467 274.5114 236.6590 15.93155105  1309"}}, "geometry": {"type": "Point", "coordinates": [-56.837360372766746, 0.6388666429207224]}}, {"type": "Feature", "properties": {"norad_id": 66868, "name": "STARLINK-36108", "group": "last-30-days", "lat": -1.6042756844910253, "lon": -54.437721092473296, "alt_km": 295.6747575528543, "timestamp": "2025-12-12T11:38:30.171730+00:00", "meta": {"OBJECT_NAME": "STARLINK-36108", "OBJECT_ID": "2025-281W", "EPOCH": "2025-12-12T04:00:01.998720", "MEAN_MOTION": 15.93252936, "ECCENTRICITY": 0.0001631, "INCLINATION": 43.002, "RA_OF_ASC_NODE": 125.8233, "ARG_OF_PERICENTER": 273.8335, "MEAN_ANOMALY": 240.5468, "EPHEMERIS_TYPE": 0, "CLASSIFICATION_TYPE": "U", "NORAD_CAT_ID": 66868, "ELEMENT_SET_NO": 999, "REV_AT_EPOCH": 130, "BSTAR": -0.0038256, "MEAN_MOTION_DOT": -0.01401934, "MEAN_MOTION_DDOT": 0.00056742}, "tle": {"line1": "1 66868U 25281W   25346.16668980 -.01401934  56742-3 -38256-2 0  9993", "line2": "2 66868  43.0020 125.8233 0001631 273.8335 240.5468 15.93252936  1309"}}, "geometry": {"type": "Point", "coordinates": [-54.437721092473296, -1.6042756844910253]}}, {"type": "Feature", "properties": {"norad_id": 66869, "name": "STARLINK-36092", "group": "last-30-days", "lat": -3.348938696407284, "lon": -52.566441044102824, "alt_km": 295.63308628697723, "timestamp": "2025-12-12T11:38:30.171740+00:00", "meta": {"OBJECT_NAME": "STARLINK-36092", "OBJECT_ID": "2025-281X", "EPOCH": "2025-12-12T04:00:01.998720", "MEAN_MOTION": 15.93326353, "ECCENTRICITY": 0.0001809, "INCLINATION": 43.002, "RA_OF_ASC_NODE": 125.8168, "ARG_OF_PERICENTER": 269.7651, "MEAN_ANOMALY": 247.1168, "EPHEMERIS_TYPE": 0, "CLASSIFICATION_TYPE": "U", "NORAD_CAT_ID": 66869, "ELEMENT_SET_NO": 999, "REV_AT_EPOCH": 134, "BSTAR": -0.0039775, "MEAN_MOTION_DOT": -0.01462592, "MEAN_MOTION_DDOT": 0.0006137}, "tle": {"line1": "1 66869U 25281X   25346.16668980 -.01462592  61370-3 -39775-2 0  9991", "line2": "2 66869  43.0020 125.8168 0001809 269.7651 247.1168 15.93326353  1348"}}, "geometry": {"type": "Point", "coordinates": [-52.566441044102824, -3.348938696407284]}}, {"type": "Feature", "properties": {"norad_id": 66870, "name": "STARLINK-36114", "group": "last-30-days", "lat": -7.627668317531199, "lon": -47.91198685817091, "alt_km": 279.5042031367584, "timestamp": "2025-12-12T11:38:30.171750+00:00", "meta": {"OBJECT_NAME": "STARLINK-36114", "OBJECT_ID": "2025-281Y", "EPOCH": "2025-12-11T18:20:53.549952", "MEAN_MOTION": 15.97988777, "ECCENTRICITY": 0.0001458, "INCLINATION": 43.0018, "RA_OF_ASC_NODE": 128.3499, "ARG_OF_PERICENTER": 296.4639, "MEAN_ANOMALY": 63.6089, "EPHEMERIS_TYPE": 0, "CLASSIFICATION_TYPE": "U", "NORAD_CAT_ID": 66870, "ELEMENT_SET_NO": 999, "REV_AT_EPOCH": 263, "BSTAR": 0.00076121, "MEAN_MOTION_DOT": 0.00359718, "MEAN_MOTION_DDOT": 6.0966e-05}, "tle": {"line1": "1 66870U 25281Y   25345.76450868  .00359718  60966-4  76121-3 0  9992", "line2": "2 66870  43.0018 128.3499 0001458 296.4639  63.6089 15.97988777  2639"}}, "geometry": {"type": "Point", "coordinates": [-47.91198685817091, -7.627668317531199]}}, {"type": "Feature", "properties": {"norad_id": 66871, "name": "STARLINK-36095", "group": "last-30-days", "lat": -7.915180708961065, "lon": -47.604078652016646, "alt_km": 295.8772173938205, "timestamp": "2025-12-12T11:38:30.171761+00:00", "meta": {"OBJECT_NAME": "STARLINK-36095", "OBJECT_ID": "2025-281Z", "EPOCH": "2025-12-12T04:00:01.998720", "MEAN_MOTION": 15.93445555, "ECCENTRICITY": 0.0001474, "INCLINATION": 43.0015, "RA_OF_ASC_NODE": 125.7993, "ARG_OF_PERICENTER": 270.9738, "MEAN_ANOMALY": 252.5341, "EPHEMERIS_TYPE": 0, "CLASSIFICATION_TYPE": "U", "NORAD_CAT_ID": 66871, "ELEMENT_SET_NO": 999, "REV_AT_EPOCH": 134, "BSTAR": -0.0041681, "MEAN_MOTION_DOT": -0.015413, "MEAN_MOTION_DDOT": 0.0006765}, "tle": {"line1": "1 66871U 25281Z   25346.16668980 -.01541300  67650-3 -41681-2 0  9995", "line2": "2 66871  43.0015 125.7993 0001474 270.9738 252.5341 15.93445555  1347"}}, "geometry": {"type": "Point", "coordinates": [-47.604078652016646, -7.915180708961065]}}, {"type": "Feature", "properties": {"norad_id": 66872, "name": "STARLINK-36082", "group": "last-30-days", "lat": -11.43160698344126, "lon": -43.65621148157646, "alt_km": 279.7264798618389, "timestamp": "2025-12-12T11:38:30.171772+00:00", "meta": {"OBJECT_NAME": "STARLINK-36082", "OBJECT_ID": "2025-281AA", "EPOCH": "2025-12-11T18:19:35.020128", "MEAN_MOTION": 15.98118857, "ECCENTRICITY": 0.00012, "INCLINATION": 43.0008, "RA_OF_ASC_NODE": 128.3422, "ARG_OF_PERICENTER": 50.2228, "MEAN_ANOMALY": 309.8755, "EPHEMERIS_TYPE": 0, "CLASSIFICATION_TYPE": "U", "NORAD_CAT_ID": 66872, "ELEMENT_SET_NO": 999, "REV_AT_EPOCH": 263, "BSTAR": 0.00081321, "MEAN_MOTION_DOT": 0.00387239, "MEAN_MOTION_DDOT": 6.9719e-05}, "tle": {"line1": "1 66872U 25281AA  25345.76359977  .00387239  69719-4  81321-3 0  9995", "line2": "2 66872  43.0008 128.3422 0001200  50.2228 309.8755 15.98118857  2631"}}, "geometry": {"type": "Point", "coordinates": [-43.65621148157646, -11.43160698344126]}}, {"type": "Feature", "properties": {"norad_id": 66873, "name": "STARLINK-36128", "group": "last-30-days", "lat": -15.070779557943776, "lon": -39.41568964812255, "alt_km": 295.86713628561574, "timestamp": "2025-12-12T11:38:30.171786+00:00", "meta": {"OBJECT_NAME": "STARLINK-36128", "OBJECT_ID": "2025-281AB", "EPOCH": "2025-12-12T04:00:01.998720", "MEAN_MOTION": 15.93599554, "ECCENTRICITY": 0.0001615, "INCLINATION": 43.0012, "RA_OF_ASC_NODE": 125.7726, "ARG_OF_PERICENTER": 266.3604, "MEAN_ANOMALY": 267.7433, "EPHEMERIS_TYPE": 0, "CLASSIFICATION_TYPE": "U", "NORAD_CAT_ID": 66873, "ELEMENT_SET_NO": 999, "REV_AT_EPOCH": 134, "BSTAR": -0.0041532, "MEAN_MOTION_DOT": -0.01548302, "MEAN_MOTION_DDOT": 0.0006832}, "tle": {"line1": "1 66873U 25281AB  25346.16668980 -.01548302  68320-3 -41532-2 0  9996", "line2": "2 66873  43.0012 125.7726 0001615 266.3604 267.7433 15.93599554  1347"}}, "geometry": {"type": "Point", "coordinates": [-39.41568964812255, -15.070779557943776]}}, {"type": "Feature", "properties": {"norad_id": 66874, "name": "STARLINK-36129", "group": "last-30-days", "lat": -11.619372423345869, "lon": -43.45049041335948, "alt_km": 296.01089229543686, "timestamp": "2025-12-12T11:38:30.171796+00:00", "meta": {"OBJECT_NAME": "STARLINK-36129", "OBJECT_ID": "2025-281AC", "EPOCH": "2025-12-12T04:00:01.998720", "MEAN_MOTION": 15.9352553, "ECCENTRICITY": 0.0001518, "INCLINATION": 43.0015, "RA_OF_ASC_NODE": 125.7859, "ARG_OF_PERICENTER": 273.4567, "MEAN_ANOMALY": 255.4938, "EPHEMERIS_TYPE": 0, "CLASSIFICATION_TYPE": "U", "NORAD_CAT_ID": 66874, "ELEMENT_SET_NO": 999, "REV_AT_EPOCH": 134, "BSTAR": -0.0041708, "MEAN_MOTION_DOT": -0.01548731, "MEAN_MOTION_DDOT": 0.00068305}, "tle": {"line1": "1 66874U 25281AC  25346.16668980 -.01548731  68305-3 -41708-2 0  9991", "line2": "2 66874  43.0015 125.7859 0001518 273.4567 255.4938 15.93525530  1344"}}, "geometry": {"type": "Point", "coordinates": [-43.45049041335948, -11.619372423345869]}}]}